CCSDS_OEM_VERS = 1.0
CREATION_DATE  = 2017-05-11T12:03:22
ORIGINATOR     = GMAT USER

META_START
OBJECT_NAME          = MOPSSat_alt_35785_km_RAAN_270_124
OBJECT_ID            = SatId
CENTER_NAME          = Earth
REF_FRAME            = EME2000
TIME_SYSTEM          = UTC
START_TIME           = 2017-01-01T00:00:00.000
USEABLE_START_TIME   = 2017-01-01T00:00:00.000
USEABLE_STOP_TIME    = 2017-01-02T00:00:00.000
STOP_TIME            = 2017-01-02T00:00:00.000
INTERPOLATION        = Lagrange
INTERPOLATION_DEGREE = 7 
META_STOP


                                                                                   

2017-01-01T14:30:50.000  -1.999149147897277e+04   4.922822306038180e+04  -2.862979170082303e+00  -2.019855486865358e+00  -1.212593107030837e+00  -2.518805027402950e-04
2017-01-01T14:31:00.000  -2.001168737636671e+04   4.921609058888633e+04  -2.865497365098411e+00  -2.019323963130042e+00  -1.213901230372127e+00  -2.517584968065637e-04
2017-01-01T14:31:10.000  -2.003187795550296e+04   4.920394503630114e+04  -2.868014339675995e+00  -2.018791793345855e+00  -1.215209299865891e+00  -2.516364098007141e-04
2017-01-01T14:31:20.000  -2.005206320989746e+04   4.919178640317819e+04  -2.870530093001485e+00  -2.018258977286258e+00  -1.216517315393619e+00  -2.515142417169521e-04
2017-01-01T14:31:30.000  -2.007224313307817e+04   4.917961469006237e+04  -2.873044624263045e+00  -2.017725514724056e+00  -1.217825276837504e+00  -2.513919925493699e-04
2017-01-01T14:31:40.000  -2.009241771852352e+04   4.916742989752795e+04  -2.875557932642889e+00  -2.017191405433003e+00  -1.219133184076463e+00  -2.512696622923168e-04
2017-01-01T14:31:50.000  -2.011258695968662e+04   4.915523202616517e+04  -2.878070017320323e+00  -2.016656649187213e+00  -1.220441036987687e+00  -2.511472509402545e-04
2017-01-01T14:32:00.000  -2.013275085000621e+04   4.914302107657269e+04  -2.880580877473086e+00  -2.016121245760827e+00  -1.221748835447362e+00  -2.510247584876900e-04
2017-01-01T14:32:10.000  -2.015290938293079e+04   4.913079704934307e+04  -2.883090512280358e+00  -2.015585194927373e+00  -1.223056579332237e+00  -2.509021849290281e-04
2017-01-01T14:32:20.000  -2.017306255193020e+04   4.911855994505656e+04  -2.885598920924226e+00  -2.015048496459502e+00  -1.224364268520359e+00  -2.507795302585130e-04
2017-01-01T14:32:30.000  -2.019321035051900e+04   4.910630976426585e+04  -2.888106102592564e+00  -2.014511150128310e+00  -1.225671902892609e+00  -2.506567944700717e-04
2017-01-01T14:32:40.000  -2.021335277219540e+04   4.909404650753365e+04  -2.890612056471439e+00  -2.013973155704992e+00  -1.226979482328728e+00  -2.505339775576927e-04
2017-01-01T14:32:50.000  -2.023348981070611e+04   4.908177017526983e+04  -2.893116781778020e+00  -2.013434512953689e+00  -1.228287006724543e+00  -2.504110795137910e-04
2017-01-01T14:33:00.000  -2.025362145972527e+04   4.906948076792849e+04  -2.895620277720674e+00  -2.012895221640135e+00  -1.229594475971092e+00  -2.502881003311852e-04
2017-01-01T14:33:10.000  -2.027374771297587e+04   4.905717828593363e+04  -2.898122543514066e+00  -2.012355281528403e+00  -1.230901889962515e+00  -2.501650400023517e-04
2017-01-01T14:33:20.000  -2.029386856375906e+04   4.904486272996668e+04  -2.900623578320638e+00  -2.011814692393514e+00  -1.232209248565481e+00  -2.500418985223071e-04
2017-01-01T14:33:30.000  -2.031398400542496e+04   4.903253410067906e+04  -2.903123381309134e+00  -2.011273454008832e+00  -1.233516551649763e+00  -2.499186758857263e-04
2017-01-01T14:33:40.000  -2.033409403125093e+04   4.902019239876630e+04  -2.905621951639487e+00  -2.010731566149308e+00  -1.234823799080339e+00  -2.497953720876866e-04
2017-01-01T14:33:50.000  -2.035419863476344e+04   4.900783762477234e+04  -2.908119288502845e+00  -2.010189028582899e+00  -1.236130990738279e+00  -2.496719871217024e-04
2017-01-01T14:34:00.000  -2.037429780947238e+04   4.899546977925082e+04  -2.910615391088516e+00  -2.009645841077647e+00  -1.237438126503507e+00  -2.495485209813463e-04
2017-01-01T14:34:10.000  -2.039439154893237e+04   4.898308886272789e+04  -2.913110258591598e+00  -2.009102003400033e+00  -1.238745206258779e+00  -2.494249736598743e-04
2017-01-01T14:34:20.000  -2.041447984671867e+04   4.897069487571590e+04  -2.915603890209940e+00  -2.008557515315584e+00  -1.240052229888133e+00  -2.493013451503694e-04
2017-01-01T14:34:30.000  -2.043456269641629e+04   4.895828781872098e+04  -2.918096285142828e+00  -2.008012376589214e+00  -1.241359197276168e+00  -2.491776354458119e-04
2017-01-01T14:34:40.000  -2.045464009159586e+04   4.894586769225801e+04  -2.920587442587994e+00  -2.007466586985869e+00  -1.242666108306474e+00  -2.490538445392284e-04
2017-01-01T14:34:50.000  -2.047471202580216e+04   4.893343449685670e+04  -2.923077361740154e+00  -2.006920146270795e+00  -1.243972962860898e+00  -2.489299724237552e-04
2017-01-01T14:35:00.000  -2.049477849253082e+04   4.892098823307722e+04  -2.925566041788157e+00  -2.006373054210234e+00  -1.245279760818011e+00  -2.488060190927908e-04
2017-01-01T14:35:10.000  -2.051483948528915e+04   4.890852890147198e+04  -2.928053481922514e+00  -2.005825310569736e+00  -1.246586502057074e+00  -2.486819845396173e-04
2017-01-01T14:35:20.000  -2.053489499733233e+04   4.889605650275107e+04  -2.930539681302745e+00  -2.005276915121443e+00  -1.247893186440825e+00  -2.485578687590407e-04
2017-01-01T14:35:30.000  -2.055494502198315e+04   4.888357103758208e+04  -2.933024639096974e+00  -2.004727867635283e+00  -1.249199813836338e+00  -2.484336717454055e-04
2017-01-01T14:35:40.000  -2.057498955251314e+04   4.887107250666447e+04  -2.935508354467188e+00  -2.004178167882228e+00  -1.250506384107267e+00  -2.483093934933312e-04
2017-01-01T14:35:50.000  -2.059502858260357e+04   4.885856091044207e+04  -2.937990826626385e+00  -2.003627815621670e+00  -1.251812897143896e+00  -2.481850339948587e-04
2017-01-01T14:36:00.000  -2.061506210588553e+04   4.884603624938975e+04  -2.940472054781561e+00  -2.003076810614012e+00  -1.253119352833167e+00  -2.480605932422954e-04
2017-01-01T14:36:10.000  -2.063509011604420e+04   4.883349852394862e+04  -2.942952038146650e+00  -2.002525152617825e+00  -1.254425751065463e+00  -2.479360712275738e-04
2017-01-01T14:36:20.000  -2.065511260655871e+04   4.882094773468663e+04  -2.945430775910232e+00  -2.001972841396906e+00  -1.255732091717690e+00  -2.478114679438459e-04
2017-01-01T14:36:30.000  -2.067512957089555e+04   4.880838388218000e+04  -2.947908267259560e+00  -2.001419876715063e+00  -1.257038374665841e+00  -2.476867833843035e-04
2017-01-01T14:36:40.000  -2.069514100250817e+04   4.879580696701234e+04  -2.950384511380485e+00  -2.000866258336082e+00  -1.258344599784992e+00  -2.475620175421725e-04
2017-01-01T14:36:50.000  -2.071514689464536e+04   4.878321698989731e+04  -2.952859507433813e+00  -2.000311986029132e+00  -1.259650766936755e+00  -2.474371704119295e-04
2017-01-01T14:37:00.000  -2.073514724060971e+04   4.877061395151423e+04  -2.955333254587219e+00  -1.999757059561518e+00  -1.260956875986178e+00  -2.473122419876687e-04
2017-01-01T14:37:10.000  -2.075514203365567e+04   4.875799785257264e+04  -2.957805752002655e+00  -1.999201478701523e+00  -1.262262926795090e+00  -2.471872322637441e-04
2017-01-01T14:37:20.000  -2.077513126744083e+04   4.874536869352752e+04  -2.960276998892148e+00  -1.998645243205875e+00  -1.263568919251573e+00  -2.470621412319415e-04
2017-01-01T14:37:30.000  -2.079511493557455e+04   4.873272647486399e+04  -2.962746994461992e+00  -1.998088352832275e+00  -1.264874853240485e+00  -2.469369688843055e-04
2017-01-01T14:37:40.000  -2.081509303172018e+04   4.872007119703314e+04  -2.965215737925380e+00  -1.997530807336577e+00  -1.266180728650125e+00  -2.468117152125007e-04
2017-01-01T14:37:50.000  -2.083506554933549e+04   4.870740286061412e+04  -2.967683228470267e+00  -1.996972606479915e+00  -1.267486545355311e+00  -2.466863802094301e-04
2017-01-01T14:38:00.000  -2.085503248186556e+04   4.869472146619437e+04  -2.970149465283281e+00  -1.996413750023440e+00  -1.268792303229950e+00  -2.465609638680347e-04
2017-01-01T14:38:10.000  -2.087499382274249e+04   4.868202701436880e+04  -2.972614447549652e+00  -1.995854237728278e+00  -1.270098002147026e+00  -2.464354661812922e-04
2017-01-01T14:38:20.000  -2.089494956519416e+04   4.866931950586370e+04  -2.975078174429678e+00  -1.995294069361003e+00  -1.271403641966058e+00  -2.463098871434270e-04
2017-01-01T14:38:30.000  -2.091489970250211e+04   4.865659894137061e+04  -2.977540645090489e+00  -1.994733244686300e+00  -1.272709222550001e+00  -2.461842267482819e-04
2017-01-01T14:38:40.000  -2.093484422789788e+04   4.864386532161280e+04  -2.980001858693283e+00  -1.994171763469905e+00  -1.274014743758460e+00  -2.460584849899703e-04
2017-01-01T14:38:50.000  -2.095478313502072e+04   4.863111864705309e+04  -2.982461814449787e+00  -1.993609625465714e+00  -1.275320205477643e+00  -2.459326618599991e-04
2017-01-01T14:39:00.000  -2.097471641745862e+04   4.861835891818665e+04  -2.984920511565636e+00  -1.993046830428701e+00  -1.276625607590332e+00  -2.458067573501523e-04
2017-01-01T14:39:10.000  -2.099464406886695e+04   4.860558613546560e+04  -2.987377949255000e+00  -1.992483378111585e+00  -1.277930949983630e+00  -2.456807714517485e-04
2017-01-01T14:39:20.000  -2.101456608264957e+04   4.859280029950140e+04  -2.989834126701204e+00  -1.991919268273753e+00  -1.279236232528119e+00  -2.455547041576365e-04
2017-01-01T14:39:30.000  -2.103448245222197e+04   4.858000141089805e+04  -2.992289043089255e+00  -1.991354500673912e+00  -1.280541455095058e+00  -2.454285554605507e-04
2017-01-01T14:39:40.000  -2.105439317095259e+04   4.856718947028928e+04  -2.994742697598560e+00  -1.990789075071723e+00  -1.281846617552548e+00  -2.453023253534772e-04
2017-01-01T14:39:50.000  -2.107429823217910e+04   4.855436447832926e+04  -2.997195089405002e+00  -1.990222991227405e+00  -1.283151719766574e+00  -2.451760138295651e-04
